{"type":"FeatureCollection","features":[{"type":"Feature","geometry":{"type":"Point","coordinates":[-105.485845,37.577227]},"properties":{"mountain":"Blanca Peak","range":"Sangre de Cristo","range_color":"#C2185B","death_count":7,"incidents":[{"climber":"Unidentified climber","date":"2010","age":"30-39","sex":"Male","cause":"Cardiac event"},{"climber":"Barney Cruz","date":"07/28/2017","age":"20-29","sex":"Male","cause":"Fall"},{"climber":"Vaughn Fetzer","date":"09/18/2021","age":"50-59","sex":"Male","cause":"Unclear"},{"climber":"Justin Seagren","date":"09/07/2022","age":"30-39","sex":"Male","cause":"Fall"},{"climber":"Neil Campbell","date":"June 1960","age":"Unknown","sex":"Male","cause":"Unclear"},{"climber":"Michael Levine","date":"07/28/1986","age":"40-49","sex":"Male","cause":"Fall"},{"climber":"James Dean Mills","date":"08/17/1995","age":"Unknown","sex":"Male","cause":"Fall"}]}},{"type":"Feature","geometry":{"type":"Point","coordinates":[-107.083103,39.150265]},"properties":{"mountain":"Capitol Peak","range":"Elk","range_color":"#A52714","death_count":19,"incidents":[{"climber":"Unidentified climber","date":"2010","age":"30-39","sex":"Male","cause":"Fall"},{"climber":"Unidentified climber","date":"2011","age":"40-49","sex":"Male","cause":"Avalanche"},{"climber":"Unidentified climber","date":"2012","age":"30-39","sex":"Male","cause":"Falling rock/ice"},{"climber":"Unidentified climber","date":"2014","age":"30-39","sex":"Female","cause":"Fall"},{"climber":"Unidentified climber","date":"2015","age":"20-29","sex":"Male","cause":"Fall"},{"climber":"Unidentified climber","date":"2016","age":"30-39","sex":"Female","cause":"Fall"},{"climber":"Jake Lord","date":"07/15/2017","age":"20-29","sex":"Male","cause":"Fall"},{"climber":"Jeremy Shull","date":"08/06/2017","age":"30-39","sex":"Male","cause":"Fall"},{"climber":"Ryan Marcil","date":"08/22/2017","age":"20-29","sex":"Male","cause":"Fall"},{"climber":"Carlin “Carly” Brightwell","date":"08/22/2017","age":"20-29","sex":"Female","cause":"Fall"},{"climber":"Zackaria White","date":"08/26/2017","age":"20-29","sex":"Male","cause":"Fall"},{"climber":"Kelly McDermott","date":"08/01/2021","age":"30-39","sex":"Female","cause":"Fall"},{"climber":"Sarah Beechler","date":"09/03/2022","age":"30-39","sex":"Female","cause":"Fall"},{"climber":"Unidentified climber","date":"1947","age":"Unknown","sex":"Unknown","cause":"Unclear"},{"climber":"Unidentified climber","date":"05/08/2003","age":"Unknown","sex":"Unknown","cause":"Falling rock/ice"},{"climber":"Kelly McDermott","date":"07/23/2021","age":"30-39","sex":"Male","cause":"Fall"},{"climber":"Jimi Flowers","date":"07/10/2009","age":"40-49","sex":"Male","cause":"Fall"},{"climber":"Ryan Joseph Palmer","date":"07/21/2013","age":"Unknown","sex":"Male","cause":"Fall"},{"climber":"Jim Nelson","date":"08/06/2014","age":"50-59","sex":"Male","cause":"Unclear"}]}},{"type":"Feature","geometry":{"type":"Point","coordinates":[-106.861429,39.009713]},"properties":{"mountain":"Castle Peak","range":"Elk","range_color":"#A52714","death_count":2,"incidents":[{"climber":"Drew Sikes","date":"09/06/2026","age":"30-39","sex":"Male","cause":"Fall"},{"climber":"Unidentified climber","date":"09/06/2026","age":"Unknown","sex":"Male","cause":"Fall"}]}},{"type":"Feature","geometry":{"type":"Point","coordinates":[-105.606676,37.980278]},"properties":{"mountain":"Challenger Point","range":"Sangre de Cristo","range_color":"#C2185B","death_count":4,"incidents":[{"climber":"Unidentified climber","date":"2010","age":"60+","sex":"Male","cause":"Fall"},{"climber":"Jamie Rupp","date":"09/03/2017","age":"50-59","sex":"Female","cause":"Fall"},{"climber":"Dan Wallick","date":"07/28/2019","age":"40-49","sex":"Male","cause":"Unclear"},{"climber":"Jesse Peterson","date":"05/25/2012","age":"20-29","sex":"Male","cause":"Accident, other"}]}},{"type":"Feature","geometry":{"type":"Point","coordinates":[-106.8635,39.0147]},"properties":{"mountain":"Conundrum Peak","range":"Elk","range_color":"#A52714","death_count":1,"incidents":[{"climber":"Unidentified climber","date":"07/29/2023","age":"30-39","sex":"Male","cause":"Avalanche"}]}},{"type":"Feature","geometry":{"type":"Point","coordinates":[-105.576675,37.964722]},"properties":{"mountain":"Crestone Needle","range":"Sangre de Cristo","range_color":"#C2185B","death_count":15,"incidents":[{"climber":"Unidentified climber","date":"2010","age":"50-59","sex":"Male","cause":"Fall"},{"climber":"Unidentified climber","date":"2011","age":"50-59","sex":"Male","cause":"Fall"},{"climber":"Unidentified climber","date":"2015","age":"50-59","sex":"Male","cause":"Fall"},{"climber":"Unidentified climber","date":"2017","age":"30-39","sex":"Male","cause":"Avalanche"},{"climber":"Unidentified climber","date":"2017","age":"60+","sex":"Male","cause":"Fall"},{"climber":"Linda M. Pryor","date":"06/28/2008","age":"40-49","sex":"Female","cause":"Fall"},{"climber":"Jeffry Deardorff","date":"09/25/2020","age":"60+","sex":"Male","cause":"Fall"},{"climber":"Jeremy Fuerst","date":"09/11/2021","age":"40-49","sex":"Male","cause":"Fall"},{"climber":"Alexe Mericle","date":"08/03/2022","age":"30-39","sex":"Female","cause":"Fall"},{"climber":"John Howard Burns","date":"08/22/2024","age":"60+","sex":"Male","cause":"Fall"},{"climber":"Duane Buhrmester","date":"07/27/2010","age":"50-59","sex":"Male","cause":"Fall"},{"climber":"Dr. Matthew Davis","date":"09/02/2015","age":"Unknown","sex":"Male","cause":"Fall"},{"climber":"Stephen Hunt","date":"07/10/2016","age":"50-59","sex":"Male","cause":"Fall"},{"climber":"Linda Buhrmester","date":"07/27/2010","age":"50-59","sex":"Female","cause":"Fall"},{"climber":"Keith Ross","date":"08/01/2011","age":"50-59","sex":"Male","cause":"Fall"}]}},{"type":"Feature","geometry":{"type":"Point","coordinates":[-105.585286,37.966666]},"properties":{"mountain":"Crestone Peak","range":"Sangre de Cristo","range_color":"#C2185B","death_count":7,"incidents":[{"climber":"Unidentified climber","date":"2013","age":"20-29","sex":"Female","cause":"Fall"},{"climber":"Unidentified climber","date":"2014","age":"50-59","sex":"Male","cause":"Unclear"},{"climber":"Unidentified climber","date":"2014","age":"60+","sex":"Male","cause":"Unclear"},{"climber":"Bryan Ludwig","date":"06/19/2021","age":"30-39","sex":"Male","cause":"Fall"},{"climber":"Chris Gray","date":"08/29/2012","age":"Unknown","sex":"Male","cause":"Fall"},{"climber":"Mark Stice","date":"09/17/2013","age":"30-39","sex":"Male","cause":"Unclear"},{"climber":"Christopher Kiryluk","date":"07/24/2015","age":"20-29","sex":"Male","cause":"Fall"}]}},{"type":"Feature","geometry":{"type":"Point","coordinates":[-108.0053,37.8394]},"properties":{"mountain":"El Diente Peak","range":"San Juan","range_color":"#E65100","death_count":6,"incidents":[{"climber":"Unidentified climber","date":"2010","age":"50-59","sex":"Female","cause":"Fall"},{"climber":"Unidentified climber","date":"2011","age":"20-29","sex":"Male","cause":"Fall"},{"climber":"John James Coffee","date":"07/22/2024","age":"20-29","sex":"Male","cause":"Fall"},{"climber":"Erling Hansen","date":"09/15/1991","age":"Unknown","sex":"Male","cause":"Fall"},{"climber":"Peter Topp","date":"07/26/2010","age":"50-59","sex":"Male","cause":"Falling rock/ice"},{"climber":"John Merrill","date":"09/26/2010","age":"30-39","sex":"Male","cause":"Falling rock/ice"}]}},{"type":"Feature","geometry":{"type":"Point","coordinates":[-105.492511,37.582504]},"properties":{"mountain":"Ellingwood Point","range":"Sangre de Cristo","range_color":"#C2185B","death_count":2,"incidents":[{"climber":"Joy Cipoletti","date":"10/11/2020","age":"60+","sex":"Female","cause":"Fall"},{"climber":"David McKinley","date":"August 1994","age":"40-49","sex":"Male","cause":"Fall"}]}},{"type":"Feature","geometry":{"type":"Point","coordinates":[-105.555286,37.976111]},"properties":{"mountain":"Humboldt Peak","range":"Sangre de Cristo","range_color":"#C2185B","death_count":1,"incidents":[{"climber":"David Worthington","date":"05/07/2007","age":"30-39","sex":"Male","cause":"Fall"}]}},{"type":"Feature","geometry":{"type":"Point","coordinates":[-105.602509,37.979722]},"properties":{"mountain":"Kit Carson Peak","range":"Sangre de Cristo","range_color":"#C2185B","death_count":9,"incidents":[{"climber":"Unidentified climber","date":"2011","age":"50-59","sex":"Male","cause":"Fall"},{"climber":"Unidentified climber","date":"2017","age":"30-39","sex":"Male","cause":"Fall"},{"climber":"Unidentified climber","date":"2017","age":"50-59","sex":"Male","cause":"Unclear"},{"climber":"Tyler Cline","date":"06/27/2019","age":"20-29","sex":"Male","cause":"Fall"},{"climber":"Madeline Baharlou","date":"10/12/2021","age":"20-29","sex":"Female","cause":"Unclear"},{"climber":"Luis Corkern","date":"07/09/2022","age":"40-49","sex":"Male","cause":"Fall"},{"climber":"Don Thurman","date":"09/18/2010","age":"60+","sex":"Male","cause":"Fall"},{"climber":"Michael Lepold","date":"08/17/2011","age":"50-59","sex":"Male","cause":"Fall"},{"climber":"Michael Cormier","date":"07/19/2013","age":"56","sex":"Male","cause":"Fall"}]}},{"type":"Feature","geometry":{"type":"Point","coordinates":[-106.472905,39.029352]},"properties":{"mountain":"La Plata Peak","range":"Sawatch","range_color":"#0288D1","death_count":2,"incidents":[{"climber":"Unidentified climber","date":"June 2000","age":"Unknown","sex":"Male","cause":"Fall"},{"climber":"Karl Pfiffner","date":"03/19/1961","age":"25","sex":"Male","cause":"Avalanche"}]}},{"type":"Feature","geometry":{"type":"Point","coordinates":[-105.497234,37.566672]},"properties":{"mountain":"Little Bear Peak","range":"Sangre de Cristo","range_color":"#C2185B","death_count":4,"incidents":[{"climber":"Unidentified climber","date":"07/02/2006","age":"Unknown","sex":"Male","cause":"Fall"},{"climber":"Andrew Graham Perkins","date":"06/27/2026","age":"20-29","sex":"Male","cause":"Fall"},{"climber":"David","date":"06/15/2010","age":"<20","sex":"Male","cause":"Fall"},{"climber":"Lygon Stevens","date":"01/10/2008","age":"20-29","sex":"Female","cause":"Avalanche"}]}},{"type":"Feature","geometry":{"type":"Point","coordinates":[-105.616078,40.254835]},"properties":{"mountain":"Longs Peak","range":"Front","range_color":"#097138","death_count":69,"incidents":[{"climber":"Unidentified climber","date":"2010","age":"40-49","sex":"Male","cause":"Unclear"},{"climber":"Unidentified climber","date":"2010","age":"20-29","sex":"Female","cause":"Fall"},{"climber":"Unidentified climber","date":"2011","age":"20-29","sex":"Male","cause":"Avalanche"},{"climber":"Unidentified climber","date":"2012","age":"60+","sex":"Male","cause":"Fall"},{"climber":"Unidentified climber","date":"2012","age":"20-29","sex":"Male","cause":"Fall"},{"climber":"Unidentified climber","date":"2012","age":"20-29","sex":"Male","cause":"Unclear"},{"climber":"Unidentified climber","date":"2013","age":"20-29","sex":"Male","cause":"Lightning"},{"climber":"Unidentified climber","date":"2016","age":"40-49","sex":"Male","cause":"Fall"},{"climber":"Unidentified climber","date":"2016","age":"30-39","sex":"Male","cause":"Fall"},{"climber":"Agnes Vaille","date":"01/12/1925","age":"34","sex":"Female","cause":"Fall"},{"climber":"Jeffrey Carlin","date":"07/06/2026","age":"40-49","sex":"Male","cause":"Unclear"},{"climber":"Paul Nahon","date":"08/18/2013","age":"20-29","sex":"Male","cause":"Fall"},{"climber":"Pawel Abramczyk","date":"03/19/2017","age":"30-39","sex":"Male","cause":"Fall"},{"climber":"Micah Tice","date":"11/24/2018","age":"20-29","sex":"Male","cause":"Weather exposure"},{"climber":"Brian Perri","date":"06/30/2018","age":"30-39","sex":"Male","cause":"Fall"},{"climber":"Jen \"Jay\" Yambert","date":"08/26/2018","age":"60+","sex":"Female","cause":"Fall"},{"climber":"Ryan Albert","date":"10/04/2018","age":"30-39","sex":"Male","cause":"Fall"},{"climber":"Dillon Blanksma","date":"07/30/2020","age":"20-29","sex":"Male","cause":"Fall"},{"climber":"Jadyn Weiss","date":"08/12/2023","age":"20-29","sex":"Male","cause":"Fall"},{"climber":"Lucas Macaj","date":"05/12/2024","age":"20-29","sex":"Male","cause":"Fall"},{"climber":"Debra Stith","date":"07/02/2025","age":"60+","sex":"Female","cause":"Fall"},{"climber":"Jeffery Carlin","date":"07/05/2026","age":"40-49","sex":"Male","cause":"Unclear"},{"climber":"Frank Stryker","date":"August 1889","age":"20-29","sex":"Male","cause":"Accident, other"},{"climber":"James Pruitt","date":"02/28/2019","age":"60+","sex":"Male","cause":"Unclear"},{"climber":"Raymond Decker","date":"08/03/1999","age":"60+","sex":"Male","cause":"Fall"},{"climber":"Russell Jacobs","date":"09/16/2022","age":"20-29","sex":"Male","cause":"Weather exposure"},{"climber":"Carrie J. Welton","date":"09/23/1884","age":"40-49","sex":"Female","cause":"Weather exposure"},{"climber":"\"Jack\" J. Seerley Jr.","date":"08/25/1946","age":"50-59","sex":"Male","cause":"Fall"},{"climber":"Herbert Sortland","date":"01/25/1925","age":"Unknown","sex":"Male","cause":"Weather exposure"},{"climber":"Charles W. Thiemeyer","date":"08/18/1929","age":"20-29","sex":"Male","cause":"Fall"},{"climber":"Forest Ketring","date":"1926","age":"Unknown","sex":"Male","cause":"Unclear"},{"climber":"Gerald Murphy","date":"08/12/1972","age":"50-59","sex":"Male","cause":"Cardiac event"},{"climber":"Gray Secor Jr.","date":"08/29/1932","age":"<20","sex":"Male","cause":"Fall"},{"climber":"Gregory Aubuchon","date":"1921","age":"Unknown","sex":"Male","cause":"Fall"},{"climber":"Raymond G. \"Ray\" Northcutt","date":"07/21/1953","age":"Unknown","sex":"Male","cause":"Fall"},{"climber":"Robert \"Bob\" K. McCammon","date":"09/11/1949","age":"<20","sex":"Male","cause":"Fall"},{"climber":"Robert F. Smith","date":"08/24/1939","age":"Unknown","sex":"Male","cause":"Fall"},{"climber":"Robert Silver","date":"06/26/1980","age":"<20","sex":"Male","cause":"Fall"},{"climber":"Rudolf Postweiler","date":"09/11/1971","age":"40-49","sex":"Male","cause":"Cardiac event"},{"climber":"William Frechtling","date":"08/12/1971","age":"20-29","sex":"Male","cause":"Cardiac event"},{"climber":"David L. Jones","date":"04/19/1960","age":"<20","sex":"Male","cause":"Weather exposure"},{"climber":"Andy Haberkorn","date":"07/12/2000","age":"20-29","sex":"Male","cause":"Lightning"},{"climber":"Glenn R. McDonald","date":"06/28/1992","age":"Unknown","sex":"Male","cause":"Lightning"},{"climber":"John Ashby","date":"09/24/1989","age":"20-29","sex":"Male","cause":"Fall"},{"climber":"Robert Elliott","date":"01/10/1981","age":"20-29","sex":"Male","cause":"Fall"},{"climber":"T.F.","date":"1991","age":"20-29","sex":"Unknown","cause":"Fall"},{"climber":"Unidentified climber","date":"08/07/2003","age":"20-29","sex":"Male","cause":"Fall"},{"climber":"Tim Finnegan","date":"08/24/1991","age":"Unknown","sex":"Male","cause":"Lightning"},{"climber":"Cameron Tangue","date":"07/06/2000","age":"30-39","sex":"Male","cause":"Fall"},{"climber":"Clayton M Smith","date":"09/03/2006","age":"50-59","sex":"Male","cause":"Fall"},{"climber":"John Bramley","date":"09/10/2009","age":"50-59","sex":"Male","cause":"Fall"},{"climber":"Unidentified climber","date":"07/19/2009","age":"60+","sex":"Male","cause":"Unclear"},{"climber":"Jane R. Bendixen","date":"04/19/1960","age":"<20","sex":"Female","cause":"Weather exposure"},{"climber":"Unidentified climber","date":"1979","age":"Unknown","sex":"Male","cause":"Intentional"},{"climber":"James Duffy III","date":"12/14/1981","age":"20-29","sex":"Male","cause":"Weather exposure"},{"climber":"John Regan","date":"09/25/2010","age":"50-59","sex":"Male","cause":"Fall"},{"climber":"Benjamin Russell Hebb","date":"08/27/2010","age":"20-29","sex":"Male","cause":"Fall"},{"climber":"Philip Gahn","date":"07/13/2012","age":"Unknown","sex":"Male","cause":"Unclear"},{"climber":"Unidentified climber","date":"October 2015","age":"Unknown","sex":"Male","cause":"Fall"},{"climber":"Ron Webber","date":"01/19/2016","age":"50-59","sex":"Male","cause":"Fall"},{"climber":"Ray Northcutt","date":"1953","age":"Unknown","sex":"Unknown","cause":"Fall"},{"climber":"Unidentified climber","date":"June 2014","age":"20-29","sex":"Male","cause":"Unclear"},{"climber":"Scott Corliss","date":"10/01/2016","age":"60+","sex":"Male","cause":"Fall"},{"climber":"Nicholas L. Hellbusch","date":"07/25/2014","age":"<20","sex":"Male","cause":"Intentional"},{"climber":"Peter Jeffris","date":"November 2014","age":"20-29","sex":"Male","cause":"Weather exposure"},{"climber":"Jane Bendixon","date":"1960","age":"Unknown","sex":"Unknown","cause":"Unclear"},{"climber":"Rudi Moder","date":"February 1983","age":"20-29","sex":"Male","cause":"Avalanche"},{"climber":"Sudheer Averineni","date":"09/04/2004","age":"20-29","sex":"Male","cause":"Weather exposure"},{"climber":"Jeffrey R. Rosinski","date":"07/15/2010","age":"20-29","sex":"Male","cause":"Fall"}]}},{"type":"Feature","geometry":{"type":"Point","coordinates":[-106.989,39.0708]},"properties":{"mountain":"Maroon Bells","range":"Elk","range_color":"#A52714","death_count":26,"incidents":[{"climber":"Unidentified climber","date":"2010","age":"40-49","sex":"Male","cause":"Unclear"},{"climber":"Unidentified climber","date":"2012","age":"30-39","sex":"Female","cause":"Fall"},{"climber":"Unidentified climber","date":"2012","age":"20-29","sex":"Male","cause":"Fall"},{"climber":"Unidentified climber","date":"2013","age":"60+","sex":"Male","cause":"Fall"},{"climber":"Unidentified climber","date":"2014","age":"50-59","sex":"Male","cause":"Fall"},{"climber":"Unidentified climber","date":"2014","age":"30-39","sex":"Male","cause":"Fall"},{"climber":"Unidentified climber","date":"2016","age":"20-29","sex":"Male","cause":"Fall"},{"climber":"Unidentified climber","date":"2017","age":"50-59","sex":"Male","cause":"Fall"},{"climber":"Unidentified climber","date":"2017","age":"20-29","sex":"Male","cause":"Fall"},{"climber":"Jeffrey Bushroe","date":"05/27/2017","age":"20-29","sex":"Male","cause":"Fall"},{"climber":"Rei Hwa Lee","date":"08/05/2017","age":"50-59","sex":"Male","cause":"Fall"},{"climber":"James Hasse","date":"07/10/2019","age":"60+","sex":"Male","cause":"Fall"},{"climber":"Jason Buehler","date":"11/06/2020","age":"40-49","sex":"Male","cause":"Fall"},{"climber":"Unidentified climber","date":"09/02/2026","age":"60+","sex":"Male","cause":"Fall"},{"climber":"Beatrice Venice Sawyer","date":"08/23/1975","age":"20-29","sex":"Female","cause":"Fall"},{"climber":"Frank Pretzel","date":"August 1965","age":"Unknown","sex":"Male","cause":"Fall"},{"climber":"Herbert Ungnade","date":"August 1965","age":"Unknown","sex":"Male","cause":"Fall"},{"climber":"Richard Alan Cole","date":"04/23/1967","age":"Unknown","sex":"Male","cause":"Fall"},{"climber":"Ann Noyes Fowler","date":"08/15/1971","age":"Unknown","sex":"Female","cause":"Fall"},{"climber":"Bob Day","date":"August 1965","age":"Unknown","sex":"Male","cause":"Fall"},{"climber":"Spencer James Nelson","date":"08/14/2010","age":"20-29","sex":"Male","cause":"Fall"},{"climber":"Derek Kelley","date":"09/15/2012","age":"Unknown","sex":"Male","cause":"Fall"},{"climber":"Lenny Joyner","date":"07/19/2012","age":"30-39","sex":"Male","cause":"Fall"},{"climber":"David Cook","date":"09/20/2016","age":"40-49","sex":"Male","cause":"Unclear"},{"climber":"Steve Sprowles","date":"09/07/2016","age":"60+","sex":"Male","cause":"Fall"},{"climber":"Unidentified climber","date":"October 2014","age":"Unknown","sex":"Unknown","cause":"Fall"}]}},{"type":"Feature","geometry":{"type":"Point","coordinates":[-106.378358,38.947216]},"properties":{"mountain":"Missouri Mountain","range":"Sawatch","range_color":"#0288D1","death_count":4,"incidents":[{"climber":"Unidentified climber","date":"2010","age":"20-29","sex":"Male","cause":"Fall"},{"climber":"Unidentified climber","date":"2011","age":"30-39","sex":"Male","cause":"Fall"},{"climber":"Makana von Gortler","date":"06/22/2011","age":"20-29","sex":"Female","cause":"Fall"},{"climber":"Michael von Gortler","date":"06/22/2011","age":"50-59","sex":"Male","cause":"Fall"}]}},{"type":"Feature","geometry":{"type":"Point","coordinates":[-106.246688,38.673886]},"properties":{"mountain":"Mount Antero","range":"Sawatch","range_color":"#0288D1","death_count":2,"incidents":[{"climber":"Unidentified climber","date":"2013","age":"20-29","sex":"Male","cause":"Unclear"},{"climber":"Wayne Kirkbride","date":"09/25/2011","age":"60+","sex":"Male","cause":"Unclear"}]}},{"type":"Feature","geometry":{"type":"Point","coordinates":[-105.668615,39.582765]},"properties":{"mountain":"Mount Bierstadt","range":"Front","range_color":"#097138","death_count":3,"incidents":[{"climber":"Mary Elizabeth Bowles","date":"06/25/2011","age":"50-59","sex":"Female","cause":"Fall"},{"climber":"Clinton S. McHugh","date":"07/17/2012","age":"30-39","sex":"Male","cause":"Fall"},{"climber":"Clinton McHugh","date":"07/12/2012","age":"Unknown","sex":"Male","cause":"Fall"}]}},{"type":"Feature","geometry":{"type":"Point","coordinates":[-106.445332,39.117642]},"properties":{"mountain":"Mount Elbert","range":"Sawatch","range_color":"#0288D1","death_count":1,"incidents":[{"climber":"Unidentified climber","date":"09/29/2022","age":"60+","sex":"Male","cause":"Cardiac event"}]}},{"type":"Feature","geometry":{"type":"Point","coordinates":[-107.622693,37.621778]},"properties":{"mountain":"Mount Eolus","range":"Needle","range_color":"#795548","death_count":1,"incidents":[{"climber":"Ingrid Johnson","date":"06/25/2023","age":"20-29","sex":"Female","cause":"Fall"}]}},{"type":"Feature","geometry":{"type":"Point","coordinates":[-105.643716,39.588228]},"properties":{"mountain":"Mount Evans","range":"Front","range_color":"#097138","death_count":3,"incidents":[{"climber":"Unidentified climber","date":"2015","age":"<20","sex":"Male","cause":"Falling rock/ice"},{"climber":"Unidentified climber","date":"2017","age":"50-59","sex":"Male","cause":"Cardiac event"},{"climber":"Levi Stobel","date":"07/26/2026","age":"<20","sex":"Male","cause":"Lightning"}]}},{"type":"Feature","geometry":{"type":"Point","coordinates":[-106.320579,38.924439]},"properties":{"mountain":"Mount Harvard","range":"Sawatch","range_color":"#0288D1","death_count":4,"incidents":[{"climber":"Unidentified climber","date":"2011","age":"30-39","sex":"Male","cause":"Fall"},{"climber":"Unidentified climber","date":"2015","age":"50-59","sex":"Male","cause":"Falling rock/ice"},{"climber":"Eric Poehlman","date":"08/24/2016","age":"40-49","sex":"Male","cause":"Cardiac event"},{"climber":"Gene George","date":"09/20/2013","age":"60+","sex":"Male","cause":"Unclear"}]}},{"type":"Feature","geometry":{"type":"Point","coordinates":[-105.444748,37.58384]},"properties":{"mountain":"Mount Lindsey","range":"Sangre de Cristo","range_color":"#C2185B","death_count":1,"incidents":[{"climber":"David Lee Syring","date":"09/29/2000","age":"50-59","sex":"Male","cause":"Falling rock/ice"}]}},{"type":"Feature","geometry":{"type":"Point","coordinates":[-106.242521,38.749441]},"properties":{"mountain":"Mount Princeton","range":"Sawatch","range_color":"#0288D1","death_count":4,"incidents":[{"climber":"Unidentified climber","date":"2016","age":"30-39","sex":"Male","cause":"Unclear"},{"climber":"Unidentified climber","date":"2017","age":"40-49","sex":"Male","cause":"Fall"},{"climber":"Matthew Lackey","date":"04/10/2017","age":"30-39","sex":"Male","cause":"Fall"},{"climber":"Deanna Miller","date":"06/30/2011","age":"30-39","sex":"Female","cause":"Falling rock/ice"}]}},{"type":"Feature","geometry":{"type":"Point","coordinates":[-106.239466,38.618886]},"properties":{"mountain":"Mount Shavano","range":"Sawatch","range_color":"#0288D1","death_count":1,"incidents":[{"climber":"Kaden Sites","date":"04/15/2026","age":"20-29","sex":"Male","cause":"Intentional"}]}},{"type":"Feature","geometry":{"type":"Point","coordinates":[-107.792284,38.003326]},"properties":{"mountain":"Mount Sneffels","range":"San Juan","range_color":"#E65100","death_count":2,"incidents":[{"climber":"Bret Brachman-Goldstein","date":"06/10/2026","age":"30-39","sex":"Male","cause":"Fall"},{"climber":"Peter Clarke","date":"July 2021","age":"50-59","sex":"Male","cause":"Fall"}]}},{"type":"Feature","geometry":{"type":"Point","coordinates":[-107.991458,37.839161]},"properties":{"mountain":"Mount Wilson","range":"San Juan","range_color":"#E65100","death_count":1,"incidents":[{"climber":"Herbert \"Herb\" Martin","date":"1950","age":"Unknown","sex":"Male","cause":"Falling rock/ice"}]}},{"type":"Feature","geometry":{"type":"Point","coordinates":[-106.313912,38.844162]},"properties":{"mountain":"Mount Yale","range":"Sawatch","range_color":"#0288D1","death_count":15,"incidents":[{"climber":"Unidentified climber","date":"2011","age":"20-29","sex":"Male","cause":"Fall"},{"climber":"Jeffrey Pickering","date":"09/10/2016","age":"Unknown","sex":"Male","cause":"Unclear"},{"climber":"Kathleen Barlett","date":"07/18/2015","age":"30-39","sex":"Female","cause":"Lightning"},{"climber":"Captain (USN) James Joseph Richardson (copilot)","date":"09/24/1956","age":"Unknown","sex":"Male","cause":"Accident, other"},{"climber":"S/Sgt William E. MacKenzie Jr.","date":"09/24/1956","age":"Unknown","sex":"Male","cause":"Accident, other"},{"climber":"Oscar M. Rupert (Civilian)","date":"09/24/1956","age":"Unknown","sex":"Male","cause":"Accident, other"},{"climber":"A1c William R. Carpenter","date":"09/24/1956","age":"Unknown","sex":"Male","cause":"Accident, other"},{"climber":"Sgt Phillip Lenz","date":"09/24/1956","age":"Unknown","sex":"Male","cause":"Accident, other"},{"climber":"Cpt David C. Jacobs","date":"09/24/1956","age":"Unknown","sex":"Male","cause":"Accident, other"},{"climber":"1st Lt David W. Gill","date":"09/24/1956","age":"Unknown","sex":"Male","cause":"Accident, other"},{"climber":"Sp3 William L. Simpson","date":"09/24/1956","age":"Unknown","sex":"Male","cause":"Accident, other"},{"climber":"Pvt William R. Rooney","date":"09/24/1956","age":"Unknown","sex":"Male","cause":"Accident, other"},{"climber":"Colonel Charles Arthur Miller (pilot)","date":"09/24/1956","age":"Unknown","sex":"Male","cause":"Accident, other"},{"climber":"Colonel Frederick W. Ledeboer","date":"09/24/1956","age":"Unknown","sex":"Male","cause":"Accident, other"},{"climber":"Master Sargent Helen M. Schuyler (WAF)","date":"09/24/1956","age":"Unknown","sex":"Female","cause":"Accident, other"}]}},{"type":"Feature","geometry":{"type":"Point","coordinates":[-106.481638,39.466746]},"properties":{"mountain":"Mount of the Holy Cross","range":"Sawatch","range_color":"#0288D1","death_count":2,"incidents":[{"climber":"Michelle Vanek","date":"09/24/2005","age":"30-39","sex":"Female","cause":"Fall"},{"climber":"James Nelson","date":"10/03/2010","age":"30-39","sex":"Male","cause":"Unclear"}]}},{"type":"Feature","geometry":{"type":"Point","coordinates":[-105.04442,38.84054]},"properties":{"mountain":"Pikes Peak","range":"Front","range_color":"#097138","death_count":12,"incidents":[{"climber":"Rachel Dewey","date":"03/19/2017","age":"40-49","sex":"Female","cause":"Fall"},{"climber":"Tucker Shivers","date":"04/24/2019","age":"20-29","sex":"Male","cause":"Fall"},{"climber":"Russell Hardy","date":"06/13/2025","age":"50-59","sex":"Male","cause":"Fall"},{"climber":"Kevin Massey","date":"10/09/2019","age":"50-59","sex":"Male","cause":"Cardiac event"},{"climber":"Russell Hardy","date":"06/11/2025","age":"50-59","sex":"Male","cause":"Fall"},{"climber":"Walter Johnson","date":"10/26/1899","age":"20-29","sex":"Male","cause":"Falling rock/ice"},{"climber":"Sallie Skinner","date":"08/21/1911","age":"40-49","sex":"Female","cause":"Weather exposure"},{"climber":"Rich Buzzelli","date":"07/09/1995","age":"30-39","sex":"Male","cause":"Lightning"},{"climber":"Willis A. Skinner","date":"08/21/1911","age":"50-59","sex":"Male","cause":"Weather exposure"},{"climber":"Bill Blair","date":"04/25/1995","age":"Unknown","sex":"Male","cause":"Avalanche"},{"climber":"Rebecca Maxfield","date":"10/28/2018","age":"30-39","sex":"Female","cause":"Unclear"},{"climber":"Unidentified climber","date":"07/26/2000","age":"<20","sex":"Male","cause":"Lightning"}]}},{"type":"Feature","geometry":{"type":"Point","coordinates":[-106.950321,39.071378]},"properties":{"mountain":"Pyramid Peak","range":"Elk","range_color":"#A52714","death_count":3,"incidents":[{"climber":"David Morano","date":"09/10/2011","age":"40-49","sex":"Male","cause":"Fall"},{"climber":"Steve Gladbach","date":"06/23/2013","age":"50-59","sex":"Male","cause":"Fall"},{"climber":"Heinz Pagels","date":"07/23/1988","age":"40-49","sex":"Male","cause":"Fall"}]}},{"type":"Feature","geometry":{"type":"Point","coordinates":[-106.106409,39.39721]},"properties":{"mountain":"Quandary Peak","range":"Tenmile","range_color":"#0097A7","death_count":6,"incidents":[{"climber":"Unidentified climber","date":"2013","age":"40-49","sex":"Male","cause":"Fall"},{"climber":"Joe Anderson","date":"08/28/2026","age":"40-49","sex":"Male","cause":"Cardiac event"},{"climber":"David Law","date":"07/31/2018","age":"60+","sex":"Male","cause":"Cardiac event"},{"climber":"Peter Wing","date":"01/13/2019","age":"20-29","sex":"Male","cause":"Fall"},{"climber":"Ryan Torpey","date":"08/06/2008","age":"30-39","sex":"Male","cause":"Fall"},{"climber":"Mostafa Salehi","date":"07/17/2011","age":"40-49","sex":"Male","cause":"Cardiac event"}]}},{"type":"Feature","geometry":{"type":"Point","coordinates":[-107.422002,37.94083]},"properties":{"mountain":"Redcloud Peak","range":"San Juan","range_color":"#E65100","death_count":1,"incidents":[{"climber":"Ben Brownlee","date":"10/07/2020","age":"20-29","sex":"Male","cause":"Fall"}]}},{"type":"Feature","geometry":{"type":"Point","coordinates":[-107.066436,39.118877]},"properties":{"mountain":"Snowmass Mountain","range":"Elk","range_color":"#A52714","death_count":5,"incidents":[{"climber":"Unidentified climber","date":"2011","age":"50-59","sex":"Male","cause":"Fall"},{"climber":"Unidentified climber","date":"2011","age":"20-29","sex":"Male","cause":"Falling rock/ice"},{"climber":"Albert Castellano","date":"08/16/2003","age":"50-59","sex":"Male","cause":"Fall"},{"climber":"Rob Jansen","date":"08/25/2012","age":"Unknown","sex":"Male","cause":"Fall"},{"climber":"Sean A. Wylam","date":"07/24/2011","age":"20-29","sex":"Male","cause":"Fall"}]}},{"type":"Feature","geometry":{"type":"Point","coordinates":[-105.821398,39.642765]},"properties":{"mountain":"Torreys Peak","range":"Front","range_color":"#097138","death_count":5,"incidents":[{"climber":"Unidentified climber","date":"2017","age":"30-39","sex":"Male","cause":"Falling rock/ice"},{"climber":"Unidentified climber","date":"2017","age":"50-59","sex":"Male","cause":"Fall"},{"climber":"Don Chambliss","date":"07/16/2019","age":"60+","sex":"Male","cause":"Unclear"},{"climber":"Christopher Thomas","date":"12/31/2014","age":"40-49","sex":"Male","cause":"Avalanche"},{"climber":"Joel Levenberg","date":"05/21/2011","age":"30-39","sex":"Male","cause":"Avalanche"}]}},{"type":"Feature","geometry":{"type":"Point","coordinates":[-107.984791,37.860272]},"properties":{"mountain":"Wilson Peak","range":"San Juan","range_color":"#E65100","death_count":1,"incidents":[{"climber":"Herbert \"Hal\" Wise Jr","date":"09/25/2024","age":"50-59","sex":"Male","cause":"Fall"}]}},{"type":"Feature","geometry":{"type":"Point","coordinates":[-107.591879,37.621166]},"properties":{"mountain":"Windom Peak","range":"Needle","range_color":"#795548","death_count":3,"incidents":[{"climber":"Unidentified climber","date":"2017","age":"20-29","sex":"Male","cause":"Fall"},{"climber":"Dr Douglas Christensen","date":"08/15/2022","age":"50-59","sex":"Male","cause":"Fall"},{"climber":"Martin Pigeon","date":"07/10/2012","age":"Unknown","sex":"Male","cause":"Fall"}]}}]}